{
  "type": "FeatureCollection",
  "features": [
    {
      "type": "Feature",
      "properties": {
        "norad_id": 66933,
        "name": "STARLINK-36157",
        "group": "last-30-days",
        "lat": 53.011368074692015,
        "lon": 77.81581113098844,
        "alt_km": 363.16489470121815,
        "timestamp": "2025-12-24T03:53:28.363492+00:00",
        "meta_object_name": "STARLINK-36157",
        "meta_object_id": "2025-286J",
        "meta_epoch": "2025-12-23T20:00:01.000224",
        "meta_mean_motion": 15.67090607,
        "meta_eccentricity": 0.0001208,
        "meta_inclination": 53.1589,
        "meta_ra_of_asc_node": 354.9425,
        "meta_arg_of_pericenter": 87.2256,
        "meta_mean_anomaly": 304.3635,
        "meta_ephemeris_type": 0,
        "meta_classification_type": "U",
        "meta_norad_cat_id": 66933,
        "meta_element_set_no": 999,
        "meta_rev_at_epoch": 377,
        "meta_bstar": -0.020199,
        "meta_mean_motion_dot": -0.01943475,
        "meta_mean_motion_ddot": 0,
        "tle_line1": "1 66933U 25286J   25357.83334491 -.01943475  00000+0 -20199-1 0  9993",
        "tle_line2": "2 66933  53.1589 354.9425 0001208  87.2256 304.3635 15.67090607  3775"
      },
      "geometry": {
        "type": "Point",
        "coordinates": [
          77.81581113098844,
          53.011368074692015
        ]
      }
    },
    {
      "type": "Feature",
      "properties": {
        "norad_id": 66934,
        "name": "STARLINK-36153",
        "group": "last-30-days",
        "lat": 53.11655781429177,
        "lon": 81.00741028623503,
        "alt_km": 363.2703289493793,
        "timestamp": "2025-12-24T03:53:28.363502+00:00",
        "meta_object_name": "STARLINK-36153",
        "meta_object_id": "2025-286K",
        "meta_epoch": "2025-12-23T20:00:01.000224",
        "meta_mean_motion": 15.67092027,
        "meta_eccentricity": 0.0001046,
        "meta_inclination": 53.159,
        "meta_ra_of_asc_node": 354.9384,
        "meta_arg_of_pericenter": 91.4422,
        "meta_mean_anomaly": 302.0682,
        "meta_ephemeris_type": 0,
        "meta_classification_type": "U",
        "meta_norad_cat_id": 66934,
        "meta_element_set_no": 999,
        "meta_rev_at_epoch": 377,
        "meta_bstar": -0.020267,
        "meta_mean_motion_dot": -0.01949235,
        "meta_mean_motion_ddot": 0,
        "tle_line1": "1 66934U 25286K   25357.83334491 -.01949235  00000+0 -20267-1 0  9990",
        "tle_line2": "2 66934  53.1590 354.9384 0001046  91.4422 302.0682 15.67092027  3779"
      },
      "geometry": {
        "type": "Point",
        "coordinates": [
          81.00741028623503,
          53.11655781429177
        ]
      }
    },
    {
      "type": "Feature",
      "properties": {
        "norad_id": 66935,
        "name": "STARLINK-36127",
        "group": "last-30-days",
        "lat": 53.1356054528155,
        "lon": 84.20280362981265,
        "alt_km": 363.1825077684616,
        "timestamp": "2025-12-24T03:53:28.363514+00:00",
        "meta_object_name": "STARLINK-36127",
        "meta_object_id": "2025-286L",
        "meta_epoch": "2025-12-23T20:00:01.000224",
        "meta_mean_motion": 15.67092081,
        "meta_eccentricity": 0.0001184,
        "meta_inclination": 53.1588,
        "meta_ra_of_asc_node": 354.9338,
        "meta_arg_of_pericenter": 78.1605,
        "meta_mean_anomaly": 317.2626,
        "meta_ephemeris_type": 0,
        "meta_classification_type": "U",
        "meta_norad_cat_id": 66935,
        "meta_element_set_no": 999,
        "meta_rev_at_epoch": 377,
        "meta_bstar": -0.020233,
        "meta_mean_motion_dot": -0.01946423,
        "meta_mean_motion_ddot": 0,
        "tle_line1": "1 66935U 25286L   25357.83334491 -.01946423  00000+0 -20233-1 0  9990",
        "tle_line2": "2 66935  53.1588 354.9338 0001184  78.1605 317.2626 15.67092081  3770"
      },
      "geometry": {
        "type": "Point",
        "coordinates": [
          84.20280362981265,
          53.1356054528155
        ]
      }
    },
    {
      "type": "Feature",
      "properties": {
        "norad_id": 66936,
        "name": "STARLINK-36160",
        "group": "last-30-days",
        "lat": 53.06920897568194,
        "lon": 87.39580394246252,
        "alt_km": 363.19979426151076,
        "timestamp": "2025-12-24T03:53:28.363526+00:00",
        "meta_object_name": "STARLINK-36160",
        "meta_object_id": "2025-286M",
        "meta_epoch": "2025-12-23T20:00:01.000224",
        "meta_mean_motion": 15.67093103,
        "meta_eccentricity": 0.0001172,
        "meta_inclination": 53.1589,
        "meta_ra_of_asc_node": 354.9305,
        "meta_arg_of_pericenter": 78.9252,
        "meta_mean_anomaly": 318.4133,
        "meta_ephemeris_type": 0,
        "meta_classification_type": "U",
        "meta_norad_cat_id": 66936,
        "meta_element_set_no": 999,
        "meta_rev_at_epoch": 377,
        "meta_bstar": -0.020232,
        "meta_mean_motion_dot": -0.01946395,
        "meta_mean_motion_ddot": 0,
        "tle_line1": "1 66936U 25286M   25357.83334491 -.01946395  00000+0 -20232-1 0  9998",
        "tle_line2": "2 66936  53.1589 354.9305 0001172  78.9252 318.4133 15.67093103  3771"
      },
      "geometry": {
        "type": "Point",
        "coordinates": [
          87.39580394246252,
          53.06920897568194
        ]
      }
    },
    {
      "type": "Feature",
      "properties": {
        "norad_id": 66937,
        "name": "STARLINK-36165",
        "group": "last-30-days",
        "lat": 52.91743386781952,
        "lon": 90.57178604354411,
        "alt_km": 363.20918823890133,
        "timestamp": "2025-12-24T03:53:28.363538+00:00",
        "meta_object_name": "STARLINK-36165",
        "meta_object_id": "2025-286N",
        "meta_epoch": "2025-12-23T20:00:01.000224",
        "meta_mean_motion": 15.67092716,
        "meta_eccentricity": 0.0001181,
        "meta_inclination": 53.1589,
        "meta_ra_of_asc_node": 354.9262,
        "meta_arg_of_pericenter": 83.7862,
        "meta_mean_anomaly": 315.4703,
        "meta_ephemeris_type": 0,
        "meta_classification_type": "U",
        "meta_norad_cat_id": 66937,
        "meta_element_set_no": 999,
        "meta_rev_at_epoch": 377,
        "meta_bstar": -0.020236,
        "meta_mean_motion_dot": -0.01946765,
        "meta_mean_motion_ddot": 0,
        "tle_line1": "1 66937U 25286N   25357.83334491 -.01946765  00000+0 -20236-1 0  9994",
        "tle_line2": "2 66937  53.1589 354.9262 0001181  83.7862 315.4703 15.67092716  3774"
      },
      "geometry": {
        "type": "Point",
        "coordinates": [
          90.57178604354411,
          52.91743386781952
        ]
      }
    },
    {
      "type": "Feature",
      "properties": {
        "norad_id": 66938,
        "name": "STARLINK-36155",
        "group": "last-30-days",
        "lat": 52.68156113114184,
        "lon": 93.72148938808142,
        "alt_km": 363.3013868037997,
        "timestamp": "2025-12-24T03:53:28.363550+00:00",
        "meta_object_name": "STARLINK-36155",
        "meta_object_id": "2025-286P",
        "meta_epoch": "2025-12-23T20:00:01.000224",
        "meta_mean_motion": 15.67095971,
        "meta_eccentricity": 0.0001114,
        "meta_inclination": 53.1592,
        "meta_ra_of_asc_node": 354.9219,
        "meta_arg_of_pericenter": 79.7988,
        "meta_mean_anomaly": 321.373,
        "meta_ephemeris_type": 0,
        "meta_classification_type": "U",
        "meta_norad_cat_id": 66938,
        "meta_element_set_no": 999,
        "meta_rev_at_epoch": 377,
        "meta_bstar": -0.02028,
        "meta_mean_motion_dot": -0.01950612,
        "meta_mean_motion_ddot": 0,
        "tle_line1": "1 66938U 25286P   25357.83334491 -.01950612  00000+0 -20280-1 0  9990",
        "tle_line2": "2 66938  53.1592 354.9219 0001114  79.7988 321.3730 15.67095971  3773"
      },
      "geometry": {
        "type": "Point",
        "coordinates": [
          93.72148938808142,
          52.68156113114184
        ]
      }
    },
    {
      "type": "Feature",
      "properties": {
        "norad_id": 66939,
        "name": "STARLINK-36154",
        "group": "last-30-days",
        "lat": 51.96355051377647,
        "lon": 99.8883988359421,
        "alt_km": 363.32199493096414,
        "timestamp": "2025-12-24T03:53:28.363561+00:00",
        "meta_object_name": "STARLINK-36154",
        "meta_object_id": "2025-286Q",
        "meta_epoch": "2025-12-23T20:00:01.000224",
        "meta_mean_motion": 15.67096468,
        "meta_eccentricity": 0.0001245,
        "meta_inclination": 53.1591,
        "meta_ra_of_asc_node": 354.9137,
        "meta_arg_of_pericenter": 81.8198,
        "meta_mean_anomaly": 323.186,
        "meta_ephemeris_type": 0,
        "meta_classification_type": "U",
        "meta_norad_cat_id": 66939,
        "meta_element_set_no": 999,
        "meta_rev_at_epoch": 377,
        "meta_bstar": -0.020304,
        "meta_mean_motion_dot": -0.01952829,
        "meta_mean_motion_ddot": 0,
        "tle_line1": "1 66939U 25286Q   25357.83334491 -.01952829  00000+0 -20304-1 0  9990",
        "tle_line2": "2 66939  53.1591 354.9137 0001245  81.8198 323.1860 15.67096468  3770"
      },
      "geometry": {
        "type": "Point",
        "coordinates": [
          99.8883988359421,
          51.96355051377647
        ]
      }
    }
  ]
}